NOAA 15                 
1 25338U 98030A   24334.11645323  .00000564  00000+0  25025-3 0  9993
2 25338  98.5546 357.7114 0009928 196.8425 163.2427 14.26809828380959
NOAA 18                 
1 28654U 05018A   24334.08890027  .00000577  00000+0  33045-3 0  9995
2 28654  98.8625  49.5964 0013424 318.3947  41.6203 14.13435562  6557
NOAA 19                 
1 33591U 09005A   24334.13527609  .00000552  00000+0  31885-3 0  9993
2 33591  99.0266  31.5207 0013810 183.4544 176.6535 14.13213673814923
METOP-B                 
1 38771U 12049A   24334.09143845  .00000477  00000+0  23723-3 0  9999
2 38771  98.6071  27.4400 0000932  79.4607 280.6676 14.21597019632974
METEOSAT-9 (MSG-2)      
1 28912U 05049B   24331.84702219  .00000144  00000+0  00000+0 0  9993
2 28912   8.0635  59.4636 0001814 203.9464 153.5423  1.00276594  1313
EWS-G1 (GOES 13)        
1 29155U 06018A   24333.83332100 -.00000216  00000+0  00000+0 0  9990
2 29155   3.0558  83.2913 0063786 256.8492 191.3327  0.98834350 37665
GOES 14                 
1 35491U 09033A   24333.63653639 -.00000039  00000+0  00000+0 0  9994
2 35491   0.2126  91.7802 0003030 117.8006 339.0768  1.00273257   925
EWS-G2 (GOES 15)        
1 36411U 10008A   24334.09904140  .00000065  00000+0  00000+0 0  9996
2 36411   0.1705 272.8638 0006349 334.0462 278.8092  1.00268821 53967
COMS 1                  
1 36744U 10032A   24333.82645743 -.00000317  00000+0  00000+0 0  9994
2 36744   3.3690  82.7365 0000612 170.1174 241.0616  1.00270971 45420
METEOSAT-10 (MSG-3)     
1 38552U 12035B   24334.08687812  .00000021  00000+0  00000+0 0  9991
2 38552   3.3422  61.7844 0000903 218.4069 179.7859  1.00267134 45550
INSAT-3D                
1 39216U 13038B   24333.96967764 -.00000311  00000+0  00000+0 0  9999
2 39216   0.4600  90.6128 0001994 161.0671 295.2637  1.00275192 41639
HIMAWARI-8              
1 40267U 14060A   24333.82889008 -.00000248  00000+0  00000+0 0  9991
2 40267   0.0279  68.9446 0000706 167.6479 270.6489  1.00273142 37094
FENGYUN 2G              
1 40367U 14090A   24333.90988872 -.00000273  00000+0  00000+0 0  9991
2 40367   4.1989  79.6361 0002090 189.8294 225.8469  1.00264831 36333
METEOSAT-11 (MSG-4)     
1 40732U 15034A   24333.87432861  .00000092  00000+0  00000+0 0  9992
2 40732   1.7876  71.4775 0001500 190.7249 130.2870  1.00278618  1540
ELEKTRO-L 2             
1 41105U 15074A   24333.65512882 -.00000090  00000+0  00000+0 0  9998
2 41105   5.2606  77.4619 0003713 188.8830  23.0895  1.00272544 32834
INSAT-3DR               
1 41752U 16054A   24331.81462617 -.00000056  00000+0  00000+0 0  9993
2 41752   0.1505  91.9030 0014035 176.1726 165.4455  1.00272827 30122
HIMAWARI-9              
1 41836U 16064A   24333.82897698 -.00000247  00000+0  00000+0 0  9993
2 41836   0.0498 123.5102 0001049 118.4339 265.4838  1.00271671 29633
GOES 16                 
1 41866U 16071A   24333.85756066 -.00000220  00000+0  00000+0 0  9991
2 41866   0.0245 255.1610 0001115  52.7799 353.8465  1.00272156 29431
FENGYUN 4A              
1 41882U 16077A   24333.88313250 -.00000169  00000+0  00000+0 0  9994
2 41882   0.8767  85.8262 0009473 338.6171  48.1794  1.00268060 29261
DMSP 5D-3 F16 (USA 172) 
1 28054U 03048A   24334.15475910  .00000537  00000+0  30523-3 0  9992
2 28054  99.0205 342.1975 0006596 312.1375 131.5301 14.14212887 89598
DMSP 5D-3 F17 (USA 191) 
1 29522U 06050A   24334.13487429  .00000599  00000+0  33371-3 0  9997
2 29522  98.7425 341.3210 0009298 225.6933 134.3479 14.14677196932516
FENGYUN 3A              
1 32958U 08026A   24334.07966879  .00000547  00000+0  28122-3 0  9994
2 32958  98.6254 276.5913 0008111 323.8039  36.2587 14.19292938855349
DMSP 5D-3 F18 (USA 210) 
1 35951U 09057A   24334.17728168  .00000767  00000+0  42341-3 0  9996
2 35951  98.8361 307.5070 0012159  59.4008 300.8362 14.14402017779689
FENGYUN 3B              
1 37214U 10059A   24334.23685854  .00000362  00000+0  21195-3 0  9990
2 37214  99.0391   4.5223 0021920 348.8229 123.3919 14.14630792727580
SUOMI NPP               
1 37849U 11061A   24334.11725701  .00000350  00000+0  18684-3 0  9997
2 37849  98.7385 269.7140 0002031 110.9291 249.2102 14.19507034678264
FENGYUN 3C              
1 39260U 13052A   24334.19977694  .00000381  00000+0  21269-3 0  9993
2 39260  98.4392 325.1559 0010491 205.8736 154.1916 14.16354129578680
METEOR-M 2              
1 40069U 14037A   24334.14276582  .00000538  00000+0  26668-3 0  9991
2 40069  98.4504 321.1382 0004744 232.7347 127.3398 14.21149744539050
CYGFM05                 
1 41884U 16078A   24333.42255357  .00022883  00000+0  69477-3 0  9993
2 41884  34.9637 337.1800 0011993 253.0033 106.9370 15.33091332441241
CYGFM04                 
1 41885U 16078B   24333.95577472  .00025196  00000+0  73764-3 0  9991
2 41885  34.9383 315.9909 0010985 272.1464  87.7995 15.34235038441438
CYGFM02                 
1 41886U 16078C   24333.67759558  .00026535  00000+0  75913-3 0  9994
2 41886  34.9478 319.5198 0013632 264.3132  95.6031 15.34916220441484
CYGFM01                 
1 41887U 16078D   24333.42918598  .00022805  00000+0  69824-3 0  9999
2 41887  34.9470 341.1837 0012464 238.1172 121.8332 15.32819884441171
